GPS BIIF-4              
1 39166U 13023A   26113.33948645 -.00000014  00000+0  00000+0 0  9993
2 39166  54.5486 271.2064 0141929  50.6414 310.5808  2.00563719 94783
INSAT-3D                
1 39216U 13038B   26115.94925966 -.00000351  00000+0  00000+0 0  9999
2 39216   1.7929  83.1635 0001492 279.9920 322.0597  1.00272261 46550
GPS BIIF-5              
1 39533U 14008A   26115.33446883  .00000045  00000+0  00000+0 0  9997
2 39533  53.6444 151.4757 0083772 230.1062 129.2171  2.00556368 88624
LUCH 5V                 
1 39727U 14023A   26115.94232630 -.00000279  00000+0  00000+0 0  9999
2 39727   5.0069  70.2551 0002190 337.8280 239.8689  1.00272066 43830
GPS BIIF-6              
1 39741U 14026A   26115.61032539 -.00000077  00000+0  00000+0 0  9994
2 39741  56.5223 333.5646 0038955 326.6637  33.1281  2.00564849 87485
GPS BIIF-7              
1 40105U 14045A   26115.20218808  .00000035  00000+0  00000+0 0  9994
2 40105  55.3192  90.5744 0031645 119.1673 241.1386  2.00554849 85019
GSAT0201 (GALILEO 5)    
1 40128U 14050A   26115.59631178 -.00000057  00000+0  00000+0 0  9991
2 40128  48.9339 275.5890 1666211 177.3353 183.6762  1.85519949 77346
GSAT0202 (GALILEO 6)    
1 40129U 14050B   26112.61814241 -.00000026  00000+0  00000+0 0  9992
2 40129  48.9541 274.7956 1666851 177.9520 182.8300  1.85520499 79453
GPS BIIF-8              
1 40294U 14068A   26115.07628714 -.00000092  00000+0  00000+0 0  9998
2 40294  56.9533  33.0012 0065217  68.8236 291.8757  2.00572899 84143
GLONASS-K 2             
1 40315U 14075A   26113.39738229 -.00000007  00000+0  00000+0 0  9992
2 40315  63.6140 192.2680 0021796 209.7934 150.1349  2.13101329 88687
GPS BIIF-9              
1 40534U 15013A   26115.70924992 -.00000039  00000+0  00000+0 0  9994
2 40534  53.1744 206.3479 0108874  39.9788 320.8435  2.00554458 80775
GSAT0203 (GALILEO 7)    
1 40544U 15017A   26111.90090206 -.00000083  00000+0  00000+0 0  9998
2 40544  56.8042 343.1309 0002546 315.4442  44.5780  1.70475713 68240
GSAT0204 (GALILEO 8)    
1 40545U 15017B   26115.08949468 -.00000090  00000+0  00000+0 0  9993
2 40545  56.8095 343.0621 0001552 296.0698  63.9535  1.70475480 31343
GPS BIIF-10             
1 40730U 15033A   26115.37018511 -.00000039  00000+0  00000+0 0  9998
2 40730  54.0255 269.2625 0115006  29.8840 330.7367  2.00558940 78932
METEOSAT-11 (MSG-4)     
1 40732U 15034A   26115.92551288  .00000052  00000+0  00000+0 0  9999
2 40732   3.0710  71.3804 0001603 344.5095 140.8296  1.00263852  6690
GSAT0205 (GALILEO 9)    
1 40889U 15045A   26115.63255192 -.00000038  00000+0  00000+0 0  9992
2 40889  54.9613 223.1764 0005159 266.9978  92.9342  1.67410754 66085
GSAT0206 (GALILEO 10)   
1 40890U 15045B   26115.66468946 -.00000038  00000+0  00000+0 0  9990
2 40890  54.9612 223.0540 0002188  38.1287 321.8788  1.70473961 66146
